var structrtcm__1019__ephemeris__t =
[
    [ "argument_of_periapsis", "structrtcm__1019__ephemeris__t.html#aae7949fc140d06af8999d58fa58f2a85", null ],
    [ "eccentricity", "structrtcm__1019__ephemeris__t.html#a37099cf88d7216d70ce483721b7addca", null ],
    [ "gps_af0", "structrtcm__1019__ephemeris__t.html#a73d84e34265927bf4b79137ffbf8d50f", null ],
    [ "gps_af1", "structrtcm__1019__ephemeris__t.html#a77ee6a8d129d24018f73625d325b98d6", null ],
    [ "gps_af2", "structrtcm__1019__ephemeris__t.html#ab509195fe7d55a1986826c7c3fc85820", null ],
    [ "gps_cic", "structrtcm__1019__ephemeris__t.html#ac9c2ad42c537445995fbbe9ca7fed6c2", null ],
    [ "gps_cis", "structrtcm__1019__ephemeris__t.html#adcd9037fb5e027ba6e0c32dca3d98129", null ],
    [ "gps_code_l2", "structrtcm__1019__ephemeris__t.html#a7af7b6db4a6d7da7503d000c53c6293d", null ],
    [ "gps_crc", "structrtcm__1019__ephemeris__t.html#a73179f2e3d5fc8bc53ae7a4dc237938b", null ],
    [ "gps_crs", "structrtcm__1019__ephemeris__t.html#a22ef4e400f869bb04a2873da21159023", null ],
    [ "gps_cuc", "structrtcm__1019__ephemeris__t.html#a1f728b748e6e240edfe0740fe99b2648", null ],
    [ "gps_cus", "structrtcm__1019__ephemeris__t.html#ab1d9632858a667837d21046b43f836d7", null ],
    [ "gps_delta_n", "structrtcm__1019__ephemeris__t.html#a7d0a046c4433d4a2f081fc6cb6081d1c", null ],
    [ "gps_eccentricity", "structrtcm__1019__ephemeris__t.html#aef2e6d027b5b24464c42d33b8161197d", null ],
    [ "gps_fit_interval", "structrtcm__1019__ephemeris__t.html#a8200bd7e256a37c4fce585c5c0e1cc23", null ],
    [ "gps_i0", "structrtcm__1019__ephemeris__t.html#ad2847c0cf665a1b20f7f0b720f7f7ad7", null ],
    [ "gps_idot", "structrtcm__1019__ephemeris__t.html#a55ff0bca6a3e26c1ca3c67e642ae5762", null ],
    [ "gps_iodc", "structrtcm__1019__ephemeris__t.html#ac68b0a351a65abc5f62a0e02ae9d261a", null ],
    [ "gps_iode", "structrtcm__1019__ephemeris__t.html#a1c687fa41f2821502b374e925cd46eec", null ],
    [ "gps_l2p_data_flag", "structrtcm__1019__ephemeris__t.html#ae7ab9a02e3360c0d046d38e69914ddd3", null ],
    [ "gps_m0", "structrtcm__1019__ephemeris__t.html#a91424946c50d3799258c7faf080b7331", null ],
    [ "gps_omega", "structrtcm__1019__ephemeris__t.html#af23f2949877a06b71ca28dc0cf527acc", null ],
    [ "gps_omega0", "structrtcm__1019__ephemeris__t.html#a30ce585eff49fb5c314c156bae24aeee", null ],
    [ "gps_omega_dot", "structrtcm__1019__ephemeris__t.html#a089c16a9d5f53c6a5e266a9f329e5717", null ],
    [ "gps_sqrt_a", "structrtcm__1019__ephemeris__t.html#affe24ed17adddeb054c9b9b802f5c9c6", null ],
    [ "gps_sv_acc", "structrtcm__1019__ephemeris__t.html#acd2304dd606994371e5e091ad9406ad2", null ],
    [ "gps_sv_health", "structrtcm__1019__ephemeris__t.html#a68f4244d2c539d717b3574e1344b04c0", null ],
    [ "gps_tgd", "structrtcm__1019__ephemeris__t.html#a201c43a3b33da3d32ff43130e55d4e13", null ],
    [ "gps_toc", "structrtcm__1019__ephemeris__t.html#a229c9ae63761f6053cf2481bd5417fd2", null ],
    [ "gps_toe", "structrtcm__1019__ephemeris__t.html#ada3911738db06a09ad51d22987d79325", null ],
    [ "gps_wn", "structrtcm__1019__ephemeris__t.html#a3b3e9f049ef49b4e60340798e78c716a", null ],
    [ "inclination", "structrtcm__1019__ephemeris__t.html#ac27f221418fb868556346f67a8b64de9", null ],
    [ "mean_anomaly", "structrtcm__1019__ephemeris__t.html#a988354057196008af517bbe0bb69bc8c", null ],
    [ "msg_type", "structrtcm__1019__ephemeris__t.html#a37ff49bb7512cd95f805e959978e70ca", null ],
    [ "right_ascension_of_ascending_node", "structrtcm__1019__ephemeris__t.html#a43e958d5cbc9ea9c50b1f9bb08e32784", null ],
    [ "satellite_id", "structrtcm__1019__ephemeris__t.html#a306978f3868f83d6e127fef92fd6bb9e", null ],
    [ "semi_major_axis", "structrtcm__1019__ephemeris__t.html#af97668b6e9895f6bc2a0f66d628b44cd", null ],
    [ "sv", "structrtcm__1019__ephemeris__t.html#a9249c435df37cd4e404e742ef0bde8b5", null ],
    [ "time_of_week", "structrtcm__1019__ephemeris__t.html#a536d666ad9676e1ae1f25db7b6730090", null ],
    [ "time_since_epoch", "structrtcm__1019__ephemeris__t.html#a3b7dbc9621a559803cb6a44f5ec3fb1c", null ],
    [ "week_number", "structrtcm__1019__ephemeris__t.html#a3fa6e80de603da2d9661678c60a80653", null ]
];